H1 CPF 01  gfz 2021 01 25 01  5251 tandemx   
H2 1003001  6202 36605    2021 01 25 00 59 42 2021 01 30 00 00 42   120 1 1  0 0 0
H9
10 0 59240  82782.000000  0    1578816.504  -2707214.394  -6141663.506
10 0 59240  82902.000000  0    1701444.994  -3499213.129  -5692050.448
10 0 59240  83022.000000  0    1781204.462  -4232261.526  -5142961.368
10 0 59240  83142.000000  0    1817830.142  -4892814.383  -4503903.765
10 0 59240  83262.000000  0    1812028.726  -5468558.265  -3785972.929
10 0 59240  83382.000000  0    1765446.533  -5948649.827  -3001669.497
10 0 59240  83502.000000  0    1680616.587  -6323930.992  -2164688.257
10 0 59240  83622.000000  0    1560886.932  -6587114.897  -1289681.302
10 0 59240  83742.000000  0    1410330.782  -6732938.582   -392001.141
10 0 59240  83862.000000  0    1233640.378  -6758278.205    512574.141
10 0 59240  83982.000000  0    1036007.728  -6662220.533   1408124.799
10 0 59240  84102.000000  0     822993.738  -6446092.261   2278878.901
10 0 59240  84222.000000  0     600391.219  -6113441.758   3109500.279
10 0 59240  84342.000000  0     374082.545  -5669975.403   3885366.116
10 0 59240  84462.000000  0     149897.390  -5123452.233   4592828.554
10 0 59240  84582.000000  0     -66525.597  -4483539.254   5219457.204
10 0 59240  84702.000000  0    -269870.293  -3761630.250   5754256.897
10 0 59240  84822.000000  0    -455264.199  -2970633.033   6187858.094
10 0 59240  84942.000000  0    -618387.442  -2124729.624   6512674.543
10 0 59240  85062.000000  0    -755567.276  -1239118.034   6723028.489
10 0 59240  85182.000000  0    -863856.329   -329737.531   6815245.354
10 0 59240  85302.000000  0    -941093.846    587019.464   6787714.811
10 0 59240  85422.000000  0    -985947.957   1494602.861   6640917.016
10 0 59240  85542.000000  0    -997938.224   2376603.104   6377414.555
10 0 59240  85662.000000  0    -977438.993   3217047.600   6001810.581
10 0 59240  85782.000000  0    -925663.627   4000691.517   5520673.323
10 0 59240  85902.000000  0    -844628.918   4713297.523   4942426.717
10 0 59240  86022.000000  0    -737101.418   5341900.863   4277209.504
10 0 59240  86142.000000  0    -606525.626   5875053.690   3536700.712
10 0 59240  86262.000000  0    -456936.178   6303041.644   2733919.023
10 0 59240  86382.000000  0    -292856.658   6618074.590   1882993.624
10 0 59241    102.000000  0    -119183.994   6814436.732    998909.443
10 0 59241    222.000000  0      58936.210   6888596.332     97237.444
10 0 59241    342.000000  0     236240.542   6839273.233   -806147.467
10 0 59241    462.000000  0     407481.963   6667460.121  -1695356.015
10 0 59241    582.000000  0     567561.629   6376396.418  -2554772.167
10 0 59241    702.000000  0     711656.622   5971498.824  -3369332.723
10 0 59241    822.000000  0     835341.172   5460250.089  -4124794.369
10 0 59241    942.000000  0     934697.821   4852048.418  -4807982.505
10 0 59241   1062.000000  0    1006416.127   4158022.214  -5407016.701
10 0 59241   1182.000000  0    1047876.564   3390815.864  -5911509.420
10 0 59241   1302.000000  0    1057217.606   2564351.328  -6312736.572
10 0 59241   1422.000000  0    1033385.564   1693570.494  -6603776.315
10 0 59241   1542.000000  0     976166.085    794165.542  -6779617.147
10 0 59241   1662.000000  0     886197.156   -117700.741  -6837235.803
10 0 59241   1782.000000  0     764963.622  -1025680.357  -6775643.140
10 0 59241   1902.000000  0     614772.683  -1913526.017  -6595897.545
10 0 59241   2022.000000  0     438711.962  -2765372.931  -6301088.697
10 0 59241   2142.000000  0     240589.470  -3566017.194  -5896292.810
10 0 59241   2262.000000  0      24856.190  -4301185.569  -5388493.465
10 0 59241   2382.000000  0    -203486.187  -4957790.340  -4786472.002
10 0 59241   2502.000000  0    -438992.596  -5524167.435  -4100667.520
10 0 59241   2622.000000  0    -675894.806  -5990292.533  -3343006.080
10 0 59241   2742.000000  0    -908231.908  -6347969.494  -2526700.996
10 0 59241   2862.000000  0   -1129988.618  -6590987.305  -1666027.449
10 0 59241   2982.000000  0   -1335237.990  -6715241.215   -776073.037
10 0 59241   3102.000000  0   -1518284.942  -6718812.762    127530.413
10 0 59241   3222.000000  0   -1673807.237  -6602006.624   1028887.671
10 0 59241   3342.000000  0   -1796990.490  -6367343.117   1912127.959
10 0 59241   3462.000000  0   -1883653.145  -6019505.706   2761693.792
10 0 59241   3582.000000  0   -1930357.886  -5565244.228   3562623.738
10 0 59241   3702.000000  0   -1934506.543  -5013237.104   4300822.211
10 0 59241   3822.000000  0   -1894416.233  -4373917.094   4963310.566
10 0 59241   3942.000000  0   -1809376.291  -3659265.709   5538456.099
10 0 59241   4062.000000  0   -1679683.698  -2882578.701   6016175.157
10 0 59241   4182.000000  0   -1506655.397  -2058210.352   6388104.285
10 0 59241   4302.000000  0   -1292618.849  -1201303.917   6647740.342
10 0 59241   4422.000000  0   -1040881.999   -327510.157   6790548.760
10 0 59241   4542.000000  0    -755682.850    547299.578   6814036.864
10 0 59241   4662.000000  0    -442118.184   1407320.736   6717795.253
10 0 59241   4782.000000  0    -106052.286   2237100.897   6503504.751
10 0 59241   4902.000000  0     245992.440   3021817.277   6174908.572
10 0 59241   5022.000000  0     606960.630   3747542.035   5737751.019
10 0 59241   5142.000000  0     969403.178   4401492.739   5199682.676
10 0 59241   5262.000000  0    1325628.736   4972262.704   4570132.463
10 0 59241   5382.000000  0    1667864.301   5450027.149   3860147.020
10 0 59241   5502.000000  0    1988421.865   5826720.423   3082202.508
10 0 59241   5622.000000  0    2279869.086   6096183.274   2249985.924
10 0 59241   5742.000000  0    2535196.419   6254271.822   1378150.363
10 0 59241   5862.000000  0    2747979.236   6298925.825    482050.439
10 0 59241   5982.000000  0    2912528.438   6230194.122   -422535.532
10 0 59241   6102.000000  0    3024028.027   6050218.901  -1319691.299
10 0 59241   6222.000000  0    3078655.430   5763177.460  -2193650.764
10 0 59241   6342.000000  0    3073681.383   5375184.216  -3029082.018
10 0 59241   6462.000000  0    3007546.977   4894154.211  -3811361.793
10 0 59241   6582.000000  0    2879915.309   4329632.289  -4526832.474
10 0 59241   6702.000000  0    2691697.544   3692594.816  -5163037.598
10 0 59241   6822.000000  0    2445053.729   2995228.229  -5708932.178
10 0 59241   6942.000000  0    2143369.220   2250689.702  -6155065.620
10 0 59241   7062.000000  0    1791206.251   1472855.083  -6493734.024
10 0 59241   7182.000000  0    1394233.823    676060.395  -6719101.005
10 0 59241   7302.000000  0     959136.572   -125159.005  -6827288.817
10 0 59241   7422.000000  0     493502.205   -916328.950  -6816438.169
10 0 59241   7542.000000  0       5691.346  -1683291.771  -6686734.906
10 0 59241   7662.000000  0    -495308.061  -2412451.892  -6440407.026
10 0 59241   7782.000000  0   -1000042.121  -3091012.079  -6081692.380
10 0 59241   7902.000000  0   -1498764.782  -3707195.876  -5616772.808
10 0 59241   8022.000000  0   -1981621.287  -4250451.752  -5053678.449
10 0 59241   8142.000000  0   -2438839.927  -4711638.390  -4402161.493
10 0 59241   8262.000000  0   -2860928.641  -5083185.876  -3673537.766
10 0 59241   8382.000000  0   -3238871.392  -5359228.266  -2880498.793
10 0 59241   8502.000000  0   -3564320.656  -5535705.683  -2036897.139
10 0 59241   8622.000000  0   -3829782.107  -5610432.780  -1157507.003
10 0 59241   8742.000000  0   -4028785.981  -5583130.754   -257763.531
10 0 59241   8862.000000  0   -4156039.965  -5455421.123    646513.586
10 0 59241   8982.000000  0   -4207560.031  -5230781.109   1539406.214
10 0 59241   9102.000000  0   -4180775.276  -4914460.594   2405187.674
10 0 59241   9222.000000  0   -4074603.509  -4513362.894   3228608.381
10 0 59241   9342.000000  0   -3889496.693  -4035893.694   3995171.450
10 0 59241   9462.000000  0   -3627454.622  -3491781.305   4691393.338
10 0 59241   9582.000000  0   -3292006.451  -2891872.312   5305042.618
10 0 59241   9702.000000  0   -2888161.891  -2247909.920   5825352.779
10 0 59241   9822.000000  0   -2422333.090  -1572300.274   6243207.554
10 0 59241   9942.000000  0   -1902229.281   -877869.967   6551296.886
10 0 59241  10062.000000  0   -1336724.331   -177618.676   6744239.296
10 0 59241  10182.000000  0    -735702.563    515524.195   6818667.563
10 0 59241  10302.000000  0    -109886.387   1188936.801   6773284.134
10 0 59241  10422.000000  0     529354.743   1830534.410   6608882.793
10 0 59241  10542.000000  0    1170210.642   2428986.413   6328335.437
10 0 59241  10662.000000  0    1800647.793   2973916.202   5936544.370
10 0 59241  10782.000000  0    2408634.599   3456082.720   5440362.534
10 0 59241  10902.000000  0    2982372.295   3867541.459   4848480.432
10 0 59241  11022.000000  0    3510526.905   4201779.920   4171278.267
10 0 59241  11142.000000  0    3982454.806   4453824.590   3420648.701
10 0 59241  11262.000000  0    4388422.975   4620321.194   2609791.940
10 0 59241  11382.000000  0    4719814.538   4699580.083   1752979.667
10 0 59241  11502.000000  0    4969312.419   4691589.180    865300.958
10 0 59241  11622.000000  0    5131062.893   4597992.611    -37610.281
10 0 59241  11742.000000  0    5200807.800   4422034.247   -939860.721
10 0 59241  11862.000000  0    5175984.223   4168468.659  -1825585.676
10 0 59241  11982.000000  0    5055791.128   3843442.304  -2679235.302
10 0 59241  12102.000000  0    4841220.287   3454347.865  -3485853.044
10 0 59241  12222.000000  0    4535050.721   3009656.723  -4231340.259
10 0 59241  12342.000000  0    4141807.581   2518733.092  -4902702.114
10 0 59241  12462.000000  0    3667687.768   1991633.990  -5488269.046
10 0 59241  12582.000000  0    3120454.559   1438901.623  -5977891.367
10 0 59241  12702.000000  0    2509303.136    871352.598  -6363105.010
10 0 59241  12822.000000  0    1844701.133    299867.878  -6637265.677
99
